[{"OBJECT_NAME":"STARLINK-32371","OBJECT_ID":"2024-154P","EPOCH":"2026-03-09T21:03:20.633760","MEAN_MOTION":15.30200468,"ECCENTRICITY":0.00012748,"INCLINATION":53.1602,"RA_OF_ASC_NODE":282.972,"ARG_OF_PERICENTER":70.4855,"MEAN_ANOMALY":289.6283,"EPHEMERIS_TYPE":0,"CLASSIFICATION_TYPE":"U","NORAD_CAT_ID":60916,"ELEMENT_SET_NO":999,"REV_AT_EPOCH":8636,"BSTAR":-0.00012700477,"MEAN_MOTION_DOT":-4.119e-5,"MEAN_MOTION_DDOT":0},{"OBJECT_NAME":"KUIPER-00180","OBJECT_ID":"2026-030E","EPOCH":"2026-03-09T22:29:40.634304","MEAN_MOTION":15.31865817,"ECCENTRICITY":0.00157227,"INCLINATION":51.8823,"RA_OF_ASC_NODE":218.464,"ARG_OF_PERICENTER":75.5448,"MEAN_ANOMALY":284.728,"EPHEMERIS_TYPE":0,"CLASSIFICATION_TYPE":"U","NORAD_CAT_ID":67768,"ELEMENT_SET_NO":999,"REV_AT_EPOCH":512,"BSTAR":0.011360708,"MEAN_MOTION_DOT":0.00373574,"MEAN_MOTION_DDOT":0}]
